[{"OBJECT_NAME":"STARLINK-5829","OBJECT_ID":"2023-058AG","EPOCH":"2026-03-09T22:14:50.967456","MEAN_MOTION":15.05648812,"ECCENTRICITY":0.00017544,"INCLINATION":97.6042,"RA_OF_ASC_NODE":71.4736,"ARG_OF_PERICENTER":79.4273,"MEAN_ANOMALY":280.7151,"EPHEMERIS_TYPE":0,"CLASSIFICATION_TYPE":"U","NORAD_CAT_ID":56347,"ELEMENT_SET_NO":999,"REV_AT_EPOCH":15823,"BSTAR":2.3016145e-5,"MEAN_MOTION_DOT":2.71e-6,"MEAN_MOTION_DDOT":0},{"OBJECT_NAME":"DELTA 1 R\/B","OBJECT_ID":"1972-058B","EPOCH":"2026-03-09T22:14:45.150144","MEAN_MOTION":14.86907844,"ECCENTRICITY":0.00837103,"INCLINATION":98.4819,"RA_OF_ASC_NODE":287.4026,"ARG_OF_PERICENTER":251.5853,"MEAN_ANOMALY":107.6247,"EPHEMERIS_TYPE":0,"CLASSIFICATION_TYPE":"U","NORAD_CAT_ID":6127,"ELEMENT_SET_NO":999,"REV_AT_EPOCH":68503,"BSTAR":0.00031466372,"MEAN_MOTION_DOT":2.928e-5,"MEAN_MOTION_DDOT":0}]
